start=new Date('2023-03-17T00:00:00.000Z').valueOf();
sats=[{"SEMIMAJOR_AXIS":"6801.421","PERIAPSIS":"416.493","REV_AT_EPOCH":"16199","BSTAR":"0.00342410000000","CLASSIFICATION_TYPE":"U","TIME_SYSTEM":"UTC","TLE_LINE2":"2 45575  52.9970 239.0924 0009988 273.9659  86.0205 15.47758741161990","OBJECT_ID":"2020-025AW","APOAPSIS":"430.079","OBJECT_NAME":"STARLINK-1326","TLE_LINE1":"1 45575U 20025AW  23075.82617244  .00184577  00000-0  34241-2 0  9994","COUNTRY_CODE":"US","MEAN_MOTION_DOT":"0.00184577","SITE":"AFETR","INCLINATION":"52.9970","MEAN_MOTION_DDOT":"0.0000000000000","CENTER_NAME":"EARTH","MEAN_ANOMALY":"86.0205","DECAY_DATE":null,"ELEMENT_SET_NO":"999","MEAN_ELEMENT_THEORY":"SGP4","LAUNCH_DATE":"2020-04-22","RA_OF_ASC_NODE":"239.0924","OBJECT_TYPE":"PAYLOAD","NORAD_CAT_ID":"45575","RCS_SIZE":"LARGE","GP_ID":"228278885","EPOCH":"2023-03-16T19:49:41.298816","PERIOD":"93.038","FILE":"3862592","EPHEMERIS_TYPE":"0","ARG_OF_PERICENTER":"273.9659","REF_FRAME":"TEME","ECCENTRICITY":"0.00099880","MEAN_MOTION":"15.47758741"},{"FILE":"3862592","RCS_SIZE":"LARGE","NORAD_CAT_ID":"45576","GP_ID":"228279135","EPOCH":"2023-03-16T20:10:38.511264","PERIOD":"95.591","EPHEMERIS_TYPE":"0","ARG_OF_PERICENTER":"99.9701","ECCENTRICITY":"0.00011260","REF_FRAME":"TEME","MEAN_MOTION":"15.06415906","SITE":"AFETR","INCLINATION":"53.0542","COUNTRY_CODE":"US","MEAN_MOTION_DOT":"0.00007064","RA_OF_ASC_NODE":"284.6549","LAUNCH_DATE":"2020-04-22","OBJECT_TYPE":"PAYLOAD","MEAN_MOTION_DDOT":"0.0000000000000","CENTER_NAME":"EARTH","DECAY_DATE":null,"MEAN_ELEMENT_THEORY":"SGP4","MEAN_ANOMALY":"260.1415","ELEMENT_SET_NO":"999","TLE_LINE2":"2 45576  53.0542 284.6549 0001126  99.9701 260.1415 15.06415906161409","OBJECT_ID":"2020-025AX","TIME_SYSTEM":"UTC","CLASSIFICATION_TYPE":"U","TLE_LINE1":"1 45576U 20025AX  23075.84072351  .00007064  00000-0  49245-3 0  9997","APOAPSIS":"547.945","OBJECT_NAME":"STARLINK-1328","SEMIMAJOR_AXIS":"6925.300","PERIAPSIS":"546.385","BSTAR":"0.00049245000000","REV_AT_EPOCH":"16140"},{"OBJECT_NAME":"STARLINK-1330","APOAPSIS":"507.139","TLE_LINE1":"1 45577U 20025AY  23075.85174382  .00050869  00000-0  22905-2 0  9990","TIME_SYSTEM":"UTC","CLASSIFICATION_TYPE":"U","TLE_LINE2":"2 45577  53.0501 276.7993 0004491 208.2897 151.7855 15.20594545161506","OBJECT_ID":"2020-025AY","REV_AT_EPOCH":"16150","BSTAR":"0.00229050000000","SEMIMAJOR_AXIS":"6882.183","PERIAPSIS":"500.957","REF_FRAME":"TEME","ECCENTRICITY":"0.00044910","ARG_OF_PERICENTER":"208.2897","EPHEMERIS_TYPE":"0","MEAN_MOTION":"15.20594545","GP_ID":"228280385","RCS_SIZE":"LARGE","NORAD_CAT_ID":"45577","EPOCH":"2023-03-16T20:26:30.666048","PERIOD":"94.700","FILE":"3862592","CENTER_NAME":"EARTH","MEAN_MOTION_DDOT":"0.0000000000000","MEAN_ELEMENT_THEORY":"SGP4","DECAY_DATE":null,"MEAN_ANOMALY":"151.7855","ELEMENT_SET_NO":"999","LAUNCH_DATE":"2020-04-22","RA_OF_ASC_NODE":"276.7993","OBJECT_TYPE":"PAYLOAD","COUNTRY_CODE":"US","MEAN_MOTION_DOT":"0.00050869","SITE":"AFETR","INCLINATION":"53.0501"},{"TLE_LINE1":"1 45578U 20025AZ  23075.83335122  .00013965  00000-0  95376-3 0  9999","OBJECT_NAME":"STARLINK-1331","APOAPSIS":"547.849","TLE_LINE2":"2 45578  53.0516 284.6874 0001058  88.8981 271.2129 15.06431636161407","OBJECT_ID":"2020-025AZ","TIME_SYSTEM":"UTC","CLASSIFICATION_TYPE":"U","BSTAR":"0.00095376000000","REV_AT_EPOCH":"16140","SEMIMAJOR_AXIS":"6925.252","PERIAPSIS":"546.384","ARG_OF_PERICENTER":"88.8981","ECCENTRICITY":"0.00010580","REF_FRAME":"TEME","EPHEMERIS_TYPE":"0","MEAN_MOTION":"15.06431636","FILE":"3862592","GP_ID":"228280136","NORAD_CAT_ID":"45578","RCS_SIZE":"LARGE","PERIOD":"95.590","EPOCH":"2023-03-16T20:00:01.545408","LAUNCH_DATE":"2020-04-22","RA_OF_ASC_NODE":"284.6874","OBJECT_TYPE":"PAYLOAD","CENTER_NAME":"EARTH","MEAN_MOTION_DDOT":"0.0000000000000","DECAY_DATE":null,"ELEMENT_SET_NO":"999","MEAN_ELEMENT_THEORY":"SGP4","MEAN_ANOMALY":"271.2129","SITE":"AFETR","INCLINATION":"53.0516","COUNTRY_CODE":"US","MEAN_MOTION_DOT":"0.00013965"},{"TLE_LINE1":"1 45579U 20025BA  23075.84072465  .00021395  00000-0  14489-2 0  9990","APOAPSIS":"547.684","OBJECT_NAME":"STARLINK-1332","OBJECT_ID":"2020-025BA","TLE_LINE2":"2 45579  53.0530 244.8158 0000903  64.5499 295.5583 15.06450555161954","TIME_SYSTEM":"UTC","CLASSIFICATION_TYPE":"U","BSTAR":"0.00144890000000","REV_AT_EPOCH":"16195","PERIAPSIS":"546.433","SEMIMAJOR_AXIS":"6925.194","MEAN_MOTION":"15.06450555","EPHEMERIS_TYPE":"0","ARG_OF_PERICENTER":"64.5499","REF_FRAME":"TEME","ECCENTRICITY":"0.00009030","FILE":"3862592","PERIOD":"95.589","EPOCH":"2023-03-16T20:10:38.609760","NORAD_CAT_ID":"45579","RCS_SIZE":"LARGE","GP_ID":"228279384","OBJECT_TYPE":"PAYLOAD","RA_OF_ASC_NODE":"244.8158","LAUNCH_DATE":"2020-04-22","DECAY_DATE":null,"MEAN_ANOMALY":"295.5583","ELEMENT_SET_NO":"999","MEAN_ELEMENT_THEORY":"SGP4","MEAN_MOTION_DDOT":"0.0000000000000","CENTER_NAME":"EARTH","INCLINATION":"53.0530","SITE":"AFETR","COUNTRY_CODE":"US","MEAN_MOTION_DOT":"0.00021395"},{"PERIOD":"95.590","EPOCH":"2023-03-16T21:44:50.794944","NORAD_CAT_ID":"45580","RCS_SIZE":"LARGE","GP_ID":"228279634","FILE":"3862592","MEAN_MOTION":"15.06436420","EPHEMERIS_TYPE":"0","ARG_OF_PERICENTER":"72.1310","REF_FRAME":"TEME","ECCENTRICITY":"0.00009060","COUNTRY_CODE":"US","MEAN_MOTION_DOT":"0.00016609","INCLINATION":"53.0537","SITE":"AFETR","ELEMENT_SET_NO":"999","DECAY_DATE":null,"MEAN_ELEMENT_THEORY":"SGP4","MEAN_ANOMALY":"287.9778","MEAN_MOTION_DDOT":"0.0000000000000","CENTER_NAME":"EARTH","OBJECT_TYPE":"PAYLOAD","RA_OF_ASC_NODE":"294.3589","LAUNCH_DATE":"2020-04-22","TIME_SYSTEM":"UTC","CLASSIFICATION_TYPE":"U","OBJECT_ID":"2020-025BB","TLE_LINE2":"2 45580  53.0537 294.3589 0000906  72.1310 287.9778 15.06436420161261","APOAPSIS":"547.729","OBJECT_NAME":"STARLINK-1333","TLE_LINE1":"1 45580U 20025BB  23075.90614346  .00016609  00000-0  11302-2 0  9992","PERIAPSIS":"546.475","SEMIMAJOR_AXIS":"6925.237","REV_AT_EPOCH":"16126","BSTAR":"0.00113020000000"},{"REF_FRAME":"TEME","ARG_OF_PERICENTER":"87.2974","ECCENTRICITY":"0.00009300","EPHEMERIS_TYPE":"0","MEAN_MOTION":"15.06447722","FILE":"3862592","GP_ID":"228279886","NORAD_CAT_ID":"45581","RCS_SIZE":"LARGE","EPOCH":"2023-03-16T20:15:56.332800","PERIOD":"95.589","LAUNCH_DATE":"2020-04-22","RA_OF_ASC_NODE":"284.6372","OBJECT_TYPE":"PAYLOAD","CENTER_NAME":"EARTH","MEAN_MOTION_DDOT":"0.0000000000000","DECAY_DATE":null,"MEAN_ELEMENT_THEORY":"SGP4","MEAN_ANOMALY":"272.8121","ELEMENT_SET_NO":"999","SITE":"AFETR","INCLINATION":"53.0526","COUNTRY_CODE":"US","MEAN_MOTION_DOT":"0.00018130","TLE_LINE1":"1 45581U 20025BC  23075.84440200  .00018130  00000-0  12313-2 0  9996","OBJECT_NAME":"STARLINK-1335","APOAPSIS":"547.711","TLE_LINE2":"2 45581  53.0526 284.6372 0000930  87.2974 272.8121 15.06447722161398","OBJECT_ID":"2020-025BC","TIME_SYSTEM":"UTC","CLASSIFICATION_TYPE":"U","BSTAR":"0.00123130000000","REV_AT_EPOCH":"16139","SEMIMAJOR_AXIS":"6925.202","PERIAPSIS":"546.423"},{"FILE":"3862592","EPOCH":"2023-03-16T20:47:46.686912","PERIOD":"95.592","GP_ID":"228280636","RCS_SIZE":"LARGE","NORAD_CAT_ID":"45582","MEAN_MOTION":"15.06398900","ECCENTRICITY":"0.00012470","REF_FRAME":"TEME","ARG_OF_PERICENTER":"78.4381","EPHEMERIS_TYPE":"0","INCLINATION":"53.0523","SITE":"AFETR","MEAN_MOTION_DOT":"0.00012213","COUNTRY_CODE":"US","OBJECT_TYPE":"PAYLOAD","LAUNCH_DATE":"2020-04-22","RA_OF_ASC_NODE":"284.5308","MEAN_ANOMALY":"281.6748","DECAY_DATE":null,"MEAN_ELEMENT_THEORY":"SGP4","ELEMENT_SET_NO":"999","CENTER_NAME":"EARTH","MEAN_MOTION_DDOT":"0.0000000000000","OBJECT_ID":"2020-025BD","TLE_LINE2":"2 45582  53.0523 284.5308 0001247  78.4381 281.6748 15.06398900161396","TIME_SYSTEM":"UTC","CLASSIFICATION_TYPE":"U","TLE_LINE1":"1 45582U 20025BD  23075.86651258  .00012213  00000-0  83737-3 0  9991","OBJECT_NAME":"STARLINK-1337","APOAPSIS":"548.081","PERIAPSIS":"546.353","SEMIMAJOR_AXIS":"6925.352","BSTAR":"0.00083737000000","REV_AT_EPOCH":"16139"},{"PERIAPSIS":"546.524","SEMIMAJOR_AXIS":"6925.195","BSTAR":"0.00125990000000","REV_AT_EPOCH":"16139","OBJECT_ID":"2020-025BE","TLE_LINE2":"2 45583  53.0510 284.6234 0000774  93.1032 267.0045 15.06449980161396","TIME_SYSTEM":"UTC","CLASSIFICATION_TYPE":"U","TLE_LINE1":"1 45583U 20025BE  23075.84808520  .00018560  00000-0  12599-2 0  9994","OBJECT_NAME":"STARLINK-1340","APOAPSIS":"547.596","INCLINATION":"53.0510","SITE":"AFETR","COUNTRY_CODE":"US","MEAN_MOTION_DOT":"0.00018560","OBJECT_TYPE":"PAYLOAD","LAUNCH_DATE":"2020-04-22","RA_OF_ASC_NODE":"284.6234","DECAY_DATE":null,"ELEMENT_SET_NO":"999","MEAN_ELEMENT_THEORY":"SGP4","MEAN_ANOMALY":"267.0045","CENTER_NAME":"EARTH","MEAN_MOTION_DDOT":"0.0000000000000","FILE":"3862592","PERIOD":"95.589","EPOCH":"2023-03-16T20:21:14.561280","GP_ID":"228278886","NORAD_CAT_ID":"45583","RCS_SIZE":"LARGE","MEAN_MOTION":"15.06449980","ECCENTRICITY":"0.00007740","REF_FRAME":"TEME","ARG_OF_PERICENTER":"93.1032","EPHEMERIS_TYPE":"0"},{"MEAN_MOTION":"15.06441172","ECCENTRICITY":"0.00009080","REF_FRAME":"TEME","ARG_OF_PERICENTER":"88.3986","EPHEMERIS_TYPE":"0","PERIOD":"95.590","EPOCH":"2023-03-16T20:03:58.187232","GP_ID":"228279136","RCS_SIZE":"LARGE","NORAD_CAT_ID":"45584","FILE":"3862592","MEAN_ELEMENT_THEORY":"SGP4","DECAY_DATE":null,"MEAN_ANOMALY":"271.7107","ELEMENT_SET_NO":"999","CENTER_NAME":"EARTH","MEAN_MOTION_DDOT":"0.0000000000000","OBJECT_TYPE":"PAYLOAD","RA_OF_ASC_NODE":"284.6653","LAUNCH_DATE":"2020-04-22","COUNTRY_CODE":"US","MEAN_MOTION_DOT":"0.00014985","INCLINATION":"53.0520","SITE":"AFETR","OBJECT_NAME":"STARLINK-1343","APOAPSIS":"547.716","TLE_LINE1":"1 45584U 20025BF  23075.83609013  .00014985  00000-0  10216-2 0  9991","CLASSIFICATION_TYPE":"U","TIME_SYSTEM":"UTC","OBJECT_ID":"2020-025BF","TLE_LINE2":"2 45584  53.0520 284.6653 0000908  88.3986 271.7107 15.06441172161392","REV_AT_EPOCH":"16139","BSTAR":"0.00102160000000","PERIAPSIS":"546.459","SEMIMAJOR_AXIS":"6925.222"}];
